NORAD_CAT_ID,OBJECT_NAME,OBJECT_TYPE,EPOCH,MEAN_MOTION,ECCENTRICITY,INCLINATION,RA_OF_ASC_NODE,ARG_OF_PERICENTER,MEAN_ANOMALY,BSTAR,MEAN_MOTION_DOT,MEAN_MOTION_DDOT,TLE_LINE0,TLE_LINE1,TLE_LINE2,SEMIMAJOR_AXIS,PERIOD,APOGEE,PERIGEE,DECAYED
53700.0,STARLINK-4725,PAYLOAD,2023-10-02 01:11:00,15.08824428,0.0001824,53.2186,277.5003,107.2214,252.8978,4.1876e-05,3.78e-06,0.0,0 STARLINK-4725,1 53700U 22107A   23275.04930870  .00000378  00000-0  41876-4 0  9995,2 53700  53.2186 277.5003 0001824 107.2214 252.8978 15.08824428 59803,6917.928,95.439,541.055,538.531,0.0
53700.0,STARLINK-4725,PAYLOAD,2023-10-02 07:32:32,15.08833146,0.0001729,53.2178,276.3105,102.9245,257.194,-6.9796e-05,-1.399e-05,0.0,0 STARLINK-4725,1 53700U 22107A   23275.31426916 -.00001399  00000-0 -69796-4 0  9993,2 53700  53.2178 276.3105 0001729 102.9245 257.1940 15.08833146 60596,6917.901,95.438,540.962,538.57,0.0
53700.0,STARLINK-4725,PAYLOAD,2023-10-03 04:12:32,15.08842927,0.000173,53.218,272.4437,104.5575,255.5609,0.0001518,2.129e-05,0.0,0 STARLINK-4725,1 53700U 22107A   23276.17537997  .00002129  00000-0  15180-3 0  9997,2 53700  53.2180 272.4437 0001730 104.5575 255.5609 15.08842927 59971,6917.871,95.437,540.933,538.54,0.0
53700.0,STARLINK-4725,PAYLOAD,2023-10-03 07:23:18,15.08849499,0.0001603,53.217,271.8478,103.1412,256.9759,0.00017062,2.429e-05,0.0,0 STARLINK-4725,1 53700U 22107A   23276.30785621  .00002429  00000-0  17062-3 0  9995,2 53700  53.2170 271.8478 0001603 103.1412 256.9759 15.08849499 60741,6917.851,95.437,540.825,538.607,0.0
53700.0,STARLINK-4725,PAYLOAD,2023-10-03 16:55:37,15.0884473,0.0001525,53.2163,270.0596,80.8979,279.2185,-4.9788e-05,-1.08e-05,0.0,0 STARLINK-4725,1 53700U 22107A   23276.70530061 -.00001080  00000-0 -49788-4 0  9990,2 53700  53.2163 270.0596 0001525  80.8979 279.2185 15.08844730 60808,6917.866,95.437,540.786,538.676,0.0
53700.0,STARLINK-4725,PAYLOAD,2023-10-04 00:52:34,15.08831179,0.0001633,53.2164,268.5734,82.6514,277.4664,0.00012823,1.753e-05,0.0,0 STARLINK-4725,1 53700U 22107A   23277.03650858  .00001753  00000-0  12823-3 0  9998,2 53700  53.2164 268.5734 0001633  82.6514 277.4664 15.08831179 60108,6917.907,95.438,540.902,538.643,0.0
53700.0,STARLINK-4725,PAYLOAD,2023-10-04 16:46:25,15.08846646,0.0001674,53.2178,265.6028,86.3537,273.7647,0.00014199,1.973e-05,0.0,0 STARLINK-4725,1 53700U 22107A   23277.69890341  .00001973  00000-0  14199-3 0  9995,2 53700  53.2178 265.6028 0001674  86.3537 273.7647 15.08846646 60204,6917.86,95.437,540.883,538.567,0.0
53700.0,STARLINK-4725,PAYLOAD,2023-10-05 08:40:16,15.08853176,0.0001731,53.2159,262.6276,91.6193,268.4998,0.00016145,2.283e-05,0.0,0 STARLINK-4725,1 53700U 22107A   23278.36129918  .00002283  00000-0  16145-3 0  9993,2 53700  53.2159 262.6276 0001731  91.6193 268.4998 15.08853176 61056,6917.84,95.437,540.903,538.508,0.0
53700.0,STARLINK-4725,PAYLOAD,2023-10-05 16:37:12,15.08837298,0.0001643,53.2169,261.1394,97.9999,262.1179,1.4803e-05,-5.2e-07,0.0,0 STARLINK-4725,1 53700U 22107A   23278.69250651 -.00000052  00000-0  14803-4 0  9991,2 53700  53.2169 261.1394 0001643  97.9999 262.1179 15.08837298 60358,6917.889,95.438,540.89,538.617,0.0
53700.0,STARLINK-4725,PAYLOAD,2023-10-06 08:31:03,15.0884902,0.0001563,53.2161,258.1671,96.0646,264.0524,0.00023001,3.375e-05,0.0,0 STARLINK-4725,1 53700U 22107A   23279.35490112  .00003375  00000-0  23001-3 0  9992,2 53700  53.2161 258.1671 0001563  96.0646 264.0524 15.08849020 60456,6917.853,95.437,540.799,538.637,0.0
53700.0,STARLINK-4725,PAYLOAD,2023-10-07 02:00:18,15.0884074,0.0001471,53.2163,254.8949,99.9008,260.215,0.00011432,1.532e-05,0.0,0 STARLINK-4725,1 53700U 22107A   23280.08354568  .00001532  00000-0  11432-3 0  9996,2 53700  53.2163 254.8949 0001471  99.9008 260.2150 15.08840740 60566,6917.878,95.438,540.761,538.726,0.0
53700.0,STARLINK-4725,PAYLOAD,2023-10-07 08:21:50,15.0884251,0.0001647,53.2167,253.7038,107.7952,252.322,0.00011056,1.472e-05,0.0,0 STARLINK-4725,1 53700U 22107A   23280.34850405  .00001472  00000-0  11056-3 0  9991,2 53700  53.2167 253.7038 0001647 107.7952 252.3220 15.08842510 61353,6917.873,95.437,540.877,538.598,0.0
53700.0,STARLINK-4725,PAYLOAD,2023-10-08 03:26:28,15.08844373,0.0001695,53.2162,250.1351,109.4151,250.7024,0.00020869,3.035e-05,0.0,0 STARLINK-4725,1 53700U 22107A   23281.14338537  .00003035  00000-0  20869-3 0  9996,2 53700  53.2162 250.1351 0001695 109.4151 250.7024 15.08844373 60723,6917.867,95.437,540.905,538.559,0.0
53700.0,STARLINK-4725,PAYLOAD,2023-10-08 06:37:14,15.08851468,0.0001433,53.2169,249.5432,96.9475,263.1681,0.00044627,6.824e-05,0.0,0 STARLINK-4725,1 53700U 22107A   23281.27586375  .00006824  00000-0  44627-3 0  9992,2 53700  53.2169 249.5432 0001433  96.9475 263.1681 15.08851468 61496,6917.845,95.437,540.702,538.719,0.0
53700.0,STARLINK-4725,PAYLOAD,2023-10-08 14:34:10,15.08849122,0.0001399,53.2168,248.0562,95.8413,264.2739,0.00041919,6.391e-05,0.0,0 STARLINK-4725,1 53700U 22107A   23281.60706277  .00006391  00000-0  41919-3 0  9994,2 53700  53.2168 248.0562 0001399  95.8413 264.2739 15.08849122 61540,6917.853,95.437,540.685,538.75,0.0
53700.0,STARLINK-4725,PAYLOAD,2023-10-09 03:17:15,15.08842962,0.0001737,53.2173,245.6817,108.2578,251.8603,7.551e-05,9.14e-06,0.0,0 STARLINK-4725,1 53700U 22107A   23282.13698568  .00000914  00000-0  75510-4 0  9996,2 53700  53.2173 245.6817 0001737 108.2578 251.8603 15.08842962 60871,6917.871,95.437,540.938,538.535,0.0
53700.0,STARLINK-4725,PAYLOAD,2023-10-09 06:28:01,15.08851226,0.0001346,53.2159,245.083,88.6472,271.4675,0.00024765,3.657e-05,0.0,0 STARLINK-4725,1 53700U 22107A   23282.26946121  .00003657  00000-0  24765-3 0  9993,2 53700  53.2159 245.0830 0001346  88.6472 271.4675 15.08851226 61640,6917.846,95.437,540.642,538.78,0.0
53700.0,STARLINK-4725,PAYLOAD,2023-10-09 22:21:53,15.08837754,0.0001206,53.2161,242.1082,98.0096,262.1033,-0.00010993,-2.037e-05,0.0,0 STARLINK-4725,1 53700U 22107A   23282.93186595 -.00002037  00000-0 -10993-3 0  9999,2 53700  53.2161 242.1082 0001206  98.0096 262.1033 15.08837754 61748,6917.887,95.438,540.587,538.918,0.0
53700.0,STARLINK-4725,PAYLOAD,2023-10-10 03:08:02,15.0884586,0.0001802,53.2167,241.2159,109.6757,250.4429,8.7146e-05,1.099e-05,0.0,0 STARLINK-4725,1 53700U 22107A   23283.13058499  .00001099  00000-0  87146-4 0  9993,2 53700  53.2167 241.2159 0001802 109.6757 250.4429 15.08845860 61021,6917.862,95.437,540.974,538.481,0.0
53700.0,STARLINK-4725,PAYLOAD,2023-10-10 06:18:48,15.08850748,0.0001504,53.2158,240.6213,104.4448,255.6711,0.00032372,4.869e-05,0.0,0 STARLINK-4725,1 53700U 22107A   23283.26306401  .00004869  00000-0  32372-3 0  9994,2 53700  53.2158 240.6213 0001504 104.4448 255.6711 15.08850748 61790,6917.848,95.437,540.753,538.672,0.0
53700.0,STARLINK-4725,PAYLOAD,2023-10-10 14:15:44,15.08839489,0.0002168,53.216,239.1347,87.569,272.555,0.00014671,2.047e-05,0.0,0 STARLINK-4725,1 53700U 22107A   23283.59427051  .00002047  00000-0  14671-3 0  9993,2 53700  53.2160 239.1347 0002168  87.5690 272.5550 15.08839489 61092,6917.882,95.438,541.247,538.247,0.0
53700.0,STARLINK-4725,PAYLOAD,2023-10-10 20:37:17,15.08837183,0.0002304,53.2157,237.9476,86.9893,273.1362,0.00013597,1.876e-05,0.0,0 STARLINK-4725,1 53700U 22107A   23283.85923249  .00001876  00000-0  13597-3 0  9997,2 53700  53.2157 237.9476 0002304  86.9893 273.1362 15.08837183 61881,6917.889,95.438,541.348,538.16,0.0
53700.0,STARLINK-4725,PAYLOAD,2023-10-11 02:58:50,15.08826858,0.000164,53.2161,236.7579,93.3558,266.7621,-9.402e-05,-1.784e-05,0.0,0 STARLINK-4725,1 53700U 22107A   23284.12419493 -.00001784  00000-0 -94020-4 0  9990,2 53700  53.2161 236.7579 0001640  93.3558 266.7621 15.08826858 61174,6917.921,95.438,540.92,538.651,0.0
53700.0,STARLINK-4725,PAYLOAD,2023-10-11 06:09:36,15.08834814,0.000132,53.2162,236.1606,97.0495,263.0647,0.00016088,2.273e-05,0.0,0 STARLINK-4725,1 53700U 22107A   23284.25667253  .00002273  00000-0  16088-3 0  9992,2 53700  53.2162 236.1606 0001320  97.0495 263.0647 15.08834814 61197,6917.896,95.438,540.674,538.848,0.0
53700.0,STARLINK-4725,PAYLOAD,2023-10-12 13:57:19,15.08846331,0.0001597,53.2165,230.2142,88.2976,271.8199,0.00057128,8.817e-05,0.0,0 STARLINK-4725,1 53700U 22107A   23285.58147837  .00008817  00000-0  57128-3 0  9990,2 53700  53.2165 230.2142 0001597  88.2976 271.8199 15.08846331 62144,6917.861,95.437,540.831,538.621,0.0
53700.0,STARLINK-4725,PAYLOAD,2023-10-13 13:48:06,15.08848671,0.0001724,53.2169,225.7513,95.5955,264.5234,0.00047345,7.257e-05,0.0,0 STARLINK-4725,1 53700U 22107A   23286.57507573  .00007257  00000-0  47345-3 0  9994,2 53700  53.2169 225.7513 0001724  95.5955 264.5234 15.08848671 62293,6917.854,95.437,540.912,538.526,0.0
53700.0,STARLINK-4725,PAYLOAD,2023-10-14 02:31:11,15.08859804,0.0001558,53.217,223.3755,90.9412,269.1759,0.00062016,9.601e-05,0.0,0 STARLINK-4725,1 53700U 22107A   23287.10499075  .00009601  00000-0  62016-3 0  9998,2 53700  53.2170 223.3755 0001558  90.9412 269.1759 15.08859804 62371,6917.82,95.436,540.763,538.607,0.0
53700.0,STARLINK-4725,PAYLOAD,2023-10-14 20:00:26,15.0883758,0.0001755,53.2179,220.1003,107.5988,252.5195,9.6104e-07,-2.73e-06,0.0,0 STARLINK-4725,1 53700U 22107A   23287.83363524 -.00000273  00000-0  96104-6 0  9992,2 53700  53.2179 220.1003 0001755 107.5988 252.5195 15.08837580 61739,6917.888,95.438,540.967,538.539,0.0
53700.0,STARLINK-4725,PAYLOAD,2023-10-15 02:21:59,15.08830297,0.0001474,53.2179,218.9112,107.0601,253.0553,-0.00014109,-2.532e-05,0.0,0 STARLINK-4725,1 53700U 22107A   23288.09859980 -.00002532  00000-0 -14109-3 0  9990,2 53700  53.2179 218.9112 0001474 107.0601 253.0553 15.08830297 61776,6917.91,95.438,540.795,538.755,0.0
53700.0,STARLINK-4725,PAYLOAD,2023-10-15 11:54:18,15.08834209,0.0001419,53.2179,217.1291,102.4328,257.6823,-6.313e-06,-3.88e-06,0.0,0 STARLINK-4725,1 53700U 22107A   23288.49604184 -.00000388  00000-0 -63130-5 0  9995,2 53700  53.2179 217.1291 0001419 102.4328 257.6823 15.08834209 62586,6917.898,95.438,540.745,538.781,0.0
